$$SOE
2461295.500000000, A.D. 2026-Sep-12 00:00:00.0000, -3.237358765083844E+08, 5.041990109575386E+07, -9.916624910768533E+06,
2461302.500000000, A.D. 2026-Sep-19 00:00:00.0000, -3.270788797314295E+08, 3.824781618585061E+07, -1.015451550805881E+07,
2461309.500000000, A.D. 2026-Sep-26 00:00:00.0000, -3.299779690900031E+08, 2.602384856106191E+07, -1.037862044120885E+07,
2461316.500000000, A.D. 2026-Oct-03 00:00:00.0000, -3.324360725051153E+08, 1.376512577661395E+07, -1.058885141027504E+07,
2461323.500000000, A.D. 2026-Oct-10 00:00:00.0000, -3.344567685789809E+08, 1.488310467399896E+06, -1.078514613685195E+07,
2461330.500000000, A.D. 2026-Oct-17 00:00:00.0000, -3.360442413405901E+08, -1.079041786950842E+07, -1.096746709007913E+07,
2461337.500000000, A.D. 2026-Oct-24 00:00:00.0000, -3.372032358277525E+08, -2.305537742409129E+07, -1.113580020679527E+07,
2461344.500000000, A.D. 2026-Oct-31 00:00:00.0000, -3.379390146560382E+08, -3.529139528750345E+07, -1.129015363108254E+07,
2461351.500000000, A.D. 2026-Nov-07 00:00:00.0000, -3.382573154446807E+08, -4.748381552871807E+07, -1.143055650769297E+07,
2461358.500000000, A.D. 2026-Nov-14 00:00:00.0000, -3.381643090693115E+08, -5.961850351888248E+07, -1.155705778338711E+07,
2461365.500000000, A.D. 2026-Nov-21 00:00:00.0000, -3.376665606886303E+08, -7.168184609219468E+07, -1.166972480130460E+07,
2461372.500000000, A.D. 2026-Nov-28 00:00:00.0000, -3.367709946495500E+08, -8.366075081764665E+07, -1.176864184904883E+07,
2461379.500000000, A.D. 2026-Dec-05 00:00:00.0000, -3.354848597322302E+08, -9.554264529374142E+07, -1.185390905152128E+07,
2461386.500000000, A.D. 2026-Dec-12 00:00:00.0000, -3.338156946203532E+08, -1.073154735964511E+08, -1.192564137285782E+07,
2461393.500000000, A.D. 2026-Dec-19 00:00:00.0000, -3.317712955058326E+08, -1.189676901048201E+08, -1.198396755615453E+07,
2461400.500000000, A.D. 2026-Dec-26 00:00:00.0000, -3.293596859751993E+08, -1.304882517942163E+08, -1.202902906135755E+07,
2461407.500000000, A.D. 2027-Jan-02 00:00:00.0000, -3.265890888945942E+08, -1.418666093960850E+08, -1.206097904456569E+07,
2461414.500000000, A.D. 2027-Jan-09 00:00:00.0000, -3.234679001551676E+08, -1.530926975952483E+08, -1.207998138923580E+07,
2461421.500000000, A.D. 2027-Jan-16 00:00:00.0000, -3.200046642087770E+08, -1.641569244320339E+08, -1.208620979243781E+07,
2461428.500000000, A.D. 2027-Jan-23 00:00:00.0000, -3.162080513031332E+08, -1.750501601109284E+08, -1.207984691384492E+07,
2461435.500000000, A.D. 2027-Jan-30 00:00:00.0000, -3.120868361764974E+08, -1.857637254111675E+08, -1.206108360848626E+07,
2461442.500000000, A.D. 2027-Feb-06 00:00:00.0000, -3.076498777287664E+08, -1.962893794914527E+08, -1.203011825384392E+07,
2461449.500000000, A.D. 2027-Feb-13 00:00:00.0000, -3.029061000638149E+08, -2.066193059855709E+08, -1.198715602812117E+07,
2461456.500000000, A.D. 2027-Feb-20 00:00:00.0000, -2.978644771938240E+08, -2.167460982831594E+08, -1.193240798577042E+07,
2461463.500000000, A.D. 2027-Feb-27 00:00:00.0000, -2.925340199327288E+08, -2.266627473046835E+08, -1.186609031938986E+07,
2461470.500000000, A.D. 2027-Mar-06 00:00:00.0000, -2.869237618851078E+08, -2.363626299367470E+08, -1.178842392653987E+07,
2461477.500000000, A.D. 2027-Mar-13 00:00:00.0000, -2.810427460575503E+08, -2.458394961575693E+08, -1.169963396629441E+07,
2461484.500000000, A.D. 2027-Mar-20 00:00:00.0000, -2.749000131513001E+08, -2.550874557559951E+08, -1.159994936931919E+07,
2461491.500000000, A.D. 2027-Mar-27 00:00:00.0000, -2.685045912655554E+08, -2.641009652515895E+08, -1.148960236392106E+07,
2461498.500000000, A.D. 2027-Apr-03 00:00:00.0000, -2.618654867414330E+08, -2.728748151132029E+08, -1.136882803932732E+07,
2461505.500000000, A.D. 2027-Apr-10 00:00:00.0000, -2.549916760195192E+08, -2.814041172941734E+08, -1.123786394821671E+07,
2461512.500000000, A.D. 2027-Apr-17 00:00:00.0000, -2.478920984238948E+08, -2.896842931321354E+08, -1.109694974967334E+07,
2461519.500000000, A.D. 2027-Apr-24 00:00:00.0000, -2.405756497296768E+08, -2.977110617031830E+08, -1.094632690286008E+07,
2461526.500000000, A.D. 2027-May-01 00:00:00.0000, -2.330511761530461E+08, -3.054804286249858E+08, -1.078623843467294E+07,
2461533.500000000, A.D. 2027-May-08 00:00:00.0000, -2.253274683977038E+08, -3.129886745777577E+08, -1.061692874651156E+07,
2461540.500000000, A.D. 2027-May-15 00:00:00.0000, -2.174132571979142E+08, -3.202323426017458E+08, -1.043864324308255E+07,
2461547.500000000, A.D. 2027-May-22 00:00:00.0000, -2.093172118666542E+08, -3.272082267717083E+08, -1.025162784991759E+07,
2461554.500000000, A.D. 2027-May-29 00:00:00.0000, -2.010479384411021E+08, -3.339133637253670E+08, -1.005612884594949E+07,
2461561.500000000, A.D. 2027-Jun-05 00:00:00.0000, -1.926139764935157E+08, -3.403450239214312E+08, -9.852392834860116E+06,
2461568.500000000, A.D. 2027-Jun-12 00:00:00.0000, -1.840237965711281E+08, -3.465007021993879E+08, -9.640666634209007E+06,
2461575.500000000, A.D. 2027-Jun-19 00:00:00.0000, -1.752857985550238E+08, -3.523781085773611E+08, -9.421197126909077E+06,
2461582.500000000, A.D. 2027-Jun-26 00:00:00.0000, -1.664083106202764E+08, -3.579751595486677E+08, -9.194231120730132E+06,
2461589.500000000, A.D. 2027-Jul-03 00:00:00.0000, -1.573995886295580E+08, -3.632899698669249E+08, -8.960015226128191E+06,
2461596.500000000, A.D. 2027-Jul-10 00:00:00.0000, -1.482678158907233E+08, -3.683208448082714E+08, -8.718795753930360E+06,
2461603.500000000, A.D. 2027-Jul-17 00:00:00.0000, -1.390211032122048E+08, -3.730662729453189E+08, -8.470818638101578E+06,
2461610.500000000, A.D. 2027-Jul-24 00:00:00.0000, -1.296674890718965E+08, -3.775249194895740E+08, -8.216329401722670E+06,
2461617.500000000, A.D. 2027-Jul-31 00:00:00.0000, -1.202149394616466E+08, -3.816956199595804E+08, -7.955573183364898E+06,
2461624.500000000, A.D. 2027-Aug-07 00:00:00.0000, -1.106713475831899E+08, -3.855773730149336E+08, -7.688794710143715E+06,
2461631.500000000, A.D. 2027-Aug-14 00:00:00.0000, -1.010445356728968E+08, -3.891693327001922E+08, -7.416238026102901E+06,
2461638.500000000, A.D. 2027-Aug-21 00:00:00.0000, -9.134225831411892E+07, -3.924708034538280E+08, -7.138146306867003E+06,
2461645.500000000, A.D. 2027-Aug-28 00:00:00.0000, -8.157220378525765E+07, -3.954812366723368E+08, -6.854761976359785E+06,
2461652.500000000, A.D. 2027-Sep-04 00:00:00.0000, -7.174199460665298E+07, -3.982002263207788E+08, -6.566326812170327E+06,
2461659.500000000, A.D. 2027-Sep-11 00:00:00.0000, -6.185918866505044E+07, -4.006275042432895E+08, -6.273081965095103E+06,
2461666.500000000, A.D. 2027-Sep-18 00:00:00.0000, -5.193128076688919E+07, -4.027629358152991E+08, -5.975267957777798E+06,
2461673.500000000, A.D. 2027-Sep-25 00:00:00.0000, -4.196570437684610E+07, -4.046065160063787E+08, -5.673124689486712E+06,
2461680.500000000, A.D. 2027-Oct-02 00:00:00.0000, -3.196983345237410E+07, -4.061583658177317E+08, -5.366891451504260E+06,
2461687.500000000, A.D. 2027-Oct-09 00:00:00.0000, -2.195098433827965E+07, -4.074187290917061E+08, -5.056806955446839E+06,
2461694.500000000, A.D. 2027-Oct-16 00:00:00.0000, -1.191641764635387E+07, -4.083879697424222E+08, -4.743109384553969E+06,
2461701.500000000, A.D. 2027-Oct-23 00:00:00.0000, -1.873339850530692E+06, -4.090665694075016E+08, -4.426036491815418E+06,
2461708.500000000, A.D. 2027-Oct-30 00:00:00.0000, 8.171095785111381E+06, -4.094551249035460E+08, -4.105825728885055E+06,
2461715.500000000, A.D. 2027-Nov-06 00:00:00.0000, 1.820978778943799E+07, -4.095543443478408E+08, -3.782714206369907E+06,
2461722.500000000, A.D. 2027-Nov-13 00:00:00.0000, 2.823568260171816E+07, -4.093650440108324E+08, -3.456938472839177E+06,
2461729.500000000, A.D. 2027-Nov-20 00:00:00.0000, 3.824177113681189E+07, -4.088881480753044E+08, -3.128734557417423E+06,
2461736.500000000, A.D. 2027-Nov-27 00:00:00.0000, 4.822108742771030E+07, -4.081246883335078E+08, -2.798338182114273E+06,
2461743.500000000, A.D. 2027-Dec-04 00:00:00.0000, 5.816670733160626E+07, -4.070758029076453E+08, -2.465984883439660E+06,
2461750.500000000, A.D. 2027-Dec-11 00:00:00.0000, 6.807174675595626E+07, -4.057427349573520E+08, -2.131910071186543E+06,
2461757.500000000, A.D. 2027-Dec-18 00:00:00.0000, 7.792935968470569E+07, -4.041268317117168E+08, -1.796349076766580E+06,
2461764.500000000, A.D. 2027-Dec-25 00:00:00.0000, 8.773273616122244E+07, -4.022295438246230E+08, -1.459537204674214E+06,
2461771.500000000, A.D. 2028-Jan-01 00:00:00.0000, 9.747510027442949E+07, -4.000524250340242E+08, -1.121709789279401E+06,
$$EOE